{"type": "FeatureCollection", "features": [ {"type": "Feature", "properties": {"norad_id": 41556, "name": "ZIYUAN 3-02 (ZY 3-02)", "group": "resource", "lat": -13.78738514982648, "lon": 70.3467103261623, "alt_km": 511.8114556958053, "timestamp": "2025-12-20T11:30:28.028442+00:00", "meta": {"OBJECT_NAME": "ZIYUAN 3-02 (ZY 3-02)", "OBJECT_ID": "2016-033A", "EPOCH": "2025-12-20T05:15:13.786848", "MEAN_MOTION": 15.21154286, "ECCENTRICITY": 0.0011029, "INCLINATION": 97.404, "RA_OF_ASC_NODE": 68.2619, "ARG_OF_PERICENTER": 218.1615, "MEAN_ANOMALY": 141.884, "EPHEMERIS_TYPE": 0, "CLASSIFICATION_TYPE": "U", "NORAD_CAT_ID": 41556, "ELEMENT_SET_NO": 999, "REV_AT_EPOCH": 53077, "BSTAR": 0.00023008, "MEAN_MOTION_DOT": 5.063e-05, "MEAN_MOTION_DDOT": 0}, "tle": {"line1": "1 41556U 16033A   25354.21890957  .00005063  00000+0  23008-3 0  9993", "line2": "2 41556  97.4040  68.2619 0011029 218.1615 141.8840 15.21154286530779"}}, "geometry": {"type": "Point", "coordinates": [70.3467103261623, -13.78738514982648]}}, {"type": "Feature", "properties": {"norad_id": 41599, "name": "CARTOSAT-2C", "group": "resource", "lat": -51.22838240666645, "lon": -137.75947372303557, "alt_km": 522.6957289075253, "timestamp": "2025-12-20T11:30:28.028453+00:00", "meta": {"OBJECT_NAME": "CARTOSAT-2C", "OBJECT_ID": "2016-040A", "EPOCH": "2025-12-20T04:10:03.418752", "MEAN_MOTION": 15.19176738, "ECCENTRICITY": 0.0011016, "INCLINATION": 97.4763, "RA_OF_ASC_NODE": 51.3479, "ARG_OF_PERICENTER": 39.7637, "MEAN_ANOMALY": 320.4403, "EPHEMERIS_TYPE": 0, "CLASSIFICATION_TYPE": "U", "NORAD_CAT_ID": 41599, "ELEMENT_SET_NO": 999, "REV_AT_EPOCH": 52653, "BSTAR": 0.00011567, "MEAN_MOTION_DOT": 2.367e-05, "MEAN_MOTION_DDOT": 0}, "tle": {"line1": "1 41599U 16040A   25354.17365068  .00002367  00000+0  11567-3 0  9994", "line2": "2 41599  97.4763  51.3479 0011016  39.7637 320.4403 15.19176738526534"}}, "geometry": {"type": "Point", "coordinates": [-137.75947372303557, -51.22838240666645]}}, {"type": "Feature", "properties": {"norad_id": 41601, "name": "SKYSAT-C1", "group": "resource", "lat": -58.595871972270885, "lon": 42.636281104799835, "alt_km": 474.1281798999926, "timestamp": "2025-12-20T11:30:28.028462+00:00", "meta": {"OBJECT_NAME": "SKYSAT-C1", "OBJECT_ID": "2016-040C", "EPOCH": "2025-12-19T13:49:47.529120", "MEAN_MOTION": 15.32708118, "ECCENTRICITY": 0.000158, "INCLINATION": 96.9813, "RA_OF_ASC_NODE": 30.2048, "ARG_OF_PERICENTER": 351.0695, "MEAN_ANOMALY": 9.052, "EPHEMERIS_TYPE": 0, "CLASSIFICATION_TYPE": "U", "NORAD_CAT_ID": 41601, "ELEMENT_SET_NO": 999, "REV_AT_EPOCH": 53032, "BSTAR": 0.00021842, "MEAN_MOTION_DOT": 6.827e-05, "MEAN_MOTION_DDOT": 0}, "tle": {"line1": "1 41601U 16040C   25353.57624455  .00006827  00000+0  21842-3 0  9991", "line2": "2 41601  96.9813  30.2048 0001580 351.0695   9.0520 15.32708118530325"}}, "geometry": {"type": "Point", "coordinates": [42.636281104799835, -58.595871972270885]}}, {"type": "Feature", "properties": {"norad_id": 41603, "name": "LAPAN-A3", "group": "resource", "lat": 54.05385301333838, "lon": -18.20418689314621, "alt_km": 468.2762324307532, "timestamp": "2025-12-20T11:30:28.028473+00:00", "meta": {"OBJECT_NAME": "LAPAN-A3", "OBJECT_ID": "2016-040E", "EPOCH": "2025-12-20T04:59:52.577088", "MEAN_MOTION": 15.31607533, "ECCENTRICITY": 0.0008962, "INCLINATION": 97.1424, "RA_OF_ASC_NODE": 351.4929, "ARG_OF_PERICENTER": 303.5449, "MEAN_ANOMALY": 56.4937, "EPHEMERIS_TYPE": 0, "CLASSIFICATION_TYPE": "U", "NORAD_CAT_ID": 41603, "ELEMENT_SET_NO": 999, "REV_AT_EPOCH": 52740, "BSTAR": 9.197e-05, "MEAN_MOTION_DOT": 2.736e-05, "MEAN_MOTION_DDOT": 0}, "tle": {"line1": "1 41603U 16040E   25354.20824742  .00002736  00000+0  91970-4 0  9990", "line2": "2 41603  97.1424 351.4929 0008962 303.5449  56.4937 15.31607533527405"}}, "geometry": {"type": "Point", "coordinates": [-18.20418689314621, 54.05385301333838]}}, {"type": "Feature", "properties": {"norad_id": 41604, "name": "BIROS", "group": "resource", "lat": 80.35541831503065, "lon": -106.85368119647828, "alt_km": 285.65246609834503, "timestamp": "2025-12-20T11:30:28.028483+00:00", "meta": {"OBJECT_NAME": "BIROS", "OBJECT_ID": "2016-040F", "EPOCH": "2025-12-20T02:03:19.975104", "MEAN_MOTION": 15.92485133, "ECCENTRICITY": 0.0003533, "INCLINATION": 97.0689, "RA_OF_ASC_NODE": 25.8273, "ARG_OF_PERICENTER": 132.86, "MEAN_ANOMALY": 227.2973, "EPHEMERIS_TYPE": 0, "CLASSIFICATION_TYPE": "U", "NORAD_CAT_ID": 41604, "ELEMENT_SET_NO": 999, "REV_AT_EPOCH": 52989, "BSTAR": 0.00048138, "MEAN_MOTION_DOT": 0.00161911, "MEAN_MOTION_DDOT": 1.1712e-05}, "tle": {"line1": "1 41604U 16040F   25354.08564786  .00161911  11712-4  48138-3 0  9991", "line2": "2 41604  97.0689  25.8273 0003533 132.8600 227.2973 15.92485133529893"}}, "geometry": {"type": "Point", "coordinates": [-106.85368119647828, 80.35541831503065]}}, {"type": "Feature", "properties": {"norad_id": 41727, "name": "GAOFEN-3", "group": "resource", "lat": -45.666868199984684, "lon": 171.24577189751, "alt_km": 758.7941530372636, "timestamp": "2025-12-20T11:30:28.028493+00:00", "meta": {"OBJECT_NAME": "GAOFEN-3", "OBJECT_ID": "2016-049A", "EPOCH": "2025-12-20T03:48:06.490944", "MEAN_MOTION": 14.42215353, "ECCENTRICITY": 0.0001252, "INCLINATION": 98.4031, "RA_OF_ASC_NODE": 359.6319, "ARG_OF_PERICENTER": 58.3032, "MEAN_ANOMALY": 301.828, "EPHEMERIS_TYPE": 0, "CLASSIFICATION_TYPE": "U", "NORAD_CAT_ID": 41727, "ELEMENT_SET_NO": 999, "REV_AT_EPOCH": 49284, "BSTAR": 2.3977e-05, "MEAN_MOTION_DOT": 3.6e-07, "MEAN_MOTION_DDOT": 0}, "tle": {"line1": "1 41727U 16049A   25354.15840846  .00000036  00000+0  23977-4 0  9996", "line2": "2 41727  98.4031 359.6319 0001252  58.3032 301.8280 14.42215353492844"}}, "geometry": {"type": "Point", "coordinates": [171.24577189751, -45.666868199984684]}}, {"type": "Feature", "properties": {"norad_id": 41771, "name": "SKYSAT-C4", "group": "resource", "lat": 33.7956377624992, "lon": -156.034719595181, "alt_km": 435.4447470237319, "timestamp": "2025-12-20T11:30:28.028503+00:00", "meta": {"OBJECT_NAME": "SKYSAT-C4", "OBJECT_ID": "2016-058B", "EPOCH": "2025-12-20T01:32:08.920896", "MEAN_MOTION": 15.42446541, "ECCENTRICITY": 0.0002151, "INCLINATION": 96.936, "RA_OF_ASC_NODE": 18.8961, "ARG_OF_PERICENTER": 129.4309, "MEAN_ANOMALY": 230.713, "EPHEMERIS_TYPE": 0, "CLASSIFICATION_TYPE": "U", "NORAD_CAT_ID": 41771, "ELEMENT_SET_NO": 999, "REV_AT_EPOCH": 51780, "BSTAR": 0.00023477, "MEAN_MOTION_DOT": 0.00010079, "MEAN_MOTION_DDOT": 0}, "tle": {"line1": "1 41771U 16058B   25354.06399214  .00010079  00000+0  23477-3 0  9995", "line2": "2 41771  96.9360  18.8961 0002151 129.4309 230.7130 15.42446541517808"}}, "geometry": {"type": "Point", "coordinates": [-156.034719595181, 33.7956377624992]}}, {"type": "Feature", "properties": {"norad_id": 41772, "name": "SKYSAT-C5", "group": "resource", "lat": -10.795565914339003, "lon": -143.4487548374865, "alt_km": 467.19055176279653, "timestamp": "2025-12-20T11:30:28.028513+00:00", "meta": {"OBJECT_NAME": "SKYSAT-C5", "OBJECT_ID": "2016-058C", "EPOCH": "2025-12-20T02:51:02.337120", "MEAN_MOTION": 15.34000367, "ECCENTRICITY": 0.0003783, "INCLINATION": 97.0747, "RA_OF_ASC_NODE": 37.5626, "ARG_OF_PERICENTER": 257.0702, "MEAN_ANOMALY": 103.0119, "EPHEMERIS_TYPE": 0, "CLASSIFICATION_TYPE": "U", "NORAD_CAT_ID": 41772, "ELEMENT_SET_NO": 999, "REV_AT_EPOCH": 51629, "BSTAR": 0.00019531, "MEAN_MOTION_DOT": 6.351e-05, "MEAN_MOTION_DDOT": 0}, "tle": {"line1": "1 41772U 16058C   25354.11877705  .00006351  00000+0  19531-3 0  9992", "line2": "2 41772  97.0747  37.5626 0003783 257.0702 103.0119 15.34000367516297"}}, "geometry": {"type": "Point", "coordinates": [-143.4487548374865, -10.795565914339003]}}, {"type": "Feature", "properties": {"norad_id": 41773, "name": "SKYSAT-C2", "group": "resource", "lat": -67.56608585417759, "lon": 36.08293673374573, "alt_km": 460.62890556484126, "timestamp": "2025-12-20T11:30:28.028523+00:00", "meta": {"OBJECT_NAME": "SKYSAT-C2", "OBJECT_ID": "2016-058D", "EPOCH": "2025-12-20T00:52:16.860000", "MEAN_MOTION": 15.37425568, "ECCENTRICITY": 0.0003448, "INCLINATION": 97.035, "RA_OF_ASC_NODE": 18.2542, "ARG_OF_PERICENTER": 14.0685, "MEAN_ANOMALY": 346.0656, "EPHEMERIS_TYPE": 0, "CLASSIFICATION_TYPE": "U", "NORAD_CAT_ID": 41773, "ELEMENT_SET_NO": 999, "REV_AT_EPOCH": 51748, "BSTAR": 0.00022517, "MEAN_MOTION_DOT": 8.187e-05, "MEAN_MOTION_DDOT": 0}, "tle": {"line1": "1 41773U 16058D   25354.03630625  .00008187  00000+0  22517-3 0  9999", "line2": "2 41773  97.0350  18.2542 0003448  14.0685 346.0656 15.37425568517484"}}, "geometry": {"type": "Point", "coordinates": [36.08293673374573, -67.56608585417759]}}, {"type": "Feature", "properties": {"norad_id": 41774, "name": "SKYSAT-C3", "group": "resource", "lat": -40.13387322555981, "lon": 33.75055244621948, "alt_km": 440.1060984803944, "timestamp": "2025-12-20T11:30:28.028533+00:00", "meta": {"OBJECT_NAME": "SKYSAT-C3", "OBJECT_ID": "2016-058E", "EPOCH": "2025-12-20T02:21:14.910336", "MEAN_MOTION": 15.44645458, "ECCENTRICITY": 0.0001918, "INCLINATION": 96.9286, "RA_OF_ASC_NODE": 27.5022, "ARG_OF_PERICENTER": 107.9248, "MEAN_ANOMALY": 252.2211, "EPHEMERIS_TYPE": 0, "CLASSIFICATION_TYPE": "U", "NORAD_CAT_ID": 41774, "ELEMENT_SET_NO": 999, "REV_AT_EPOCH": 51839, "BSTAR": 0.00028293, "MEAN_MOTION_DOT": 0.00013104, "MEAN_MOTION_DDOT": 0}, "tle": {"line1": "1 41774U 16058E   25354.09808924  .00013104  00000+0  28293-3 0  9997", "line2": "2 41774  96.9286  27.5022 0001918 107.9248 252.2211 15.44645458518390"}}, "geometry": {"type": "Point", "coordinates": [33.75055244621948, -40.13387322555981]}}]}